CORVUS BC1              
1 42847U 17042Y   25359.95611490  .00004647  00000+0  33062-3 0  9995
2 42847  97.3876 164.0938 0011614 325.8226  34.2252 15.05061533461029
MAKERSAT 0              
1 43016U 17073D   25360.12239258  .00017522  00000+0  57963-3 0  9999
2 43016  97.4876 237.0122 0125975 164.0654 196.4604 15.23980569440038
SIRION PATHFINDER-2     
1 43759U 18099B   25360.11028111  .00005447  00000+0  31639-3 0  9990
2 43759  97.4520  48.2671 0009342 169.5176 190.6251 15.12483212386446
CORVUS BC4              
1 43767U 18099K   25360.09334080  .00004755  00000+0  29084-3 0  9993
2 43767  97.4331  43.0955 0007357 233.0884 126.9672 15.10678516386259
SPACEBEE-7              
1 43816U 18099BL  25359.16277856  .00117273  00000+0  13806-2 0  9995
2 43816  97.4688  75.4712 0002774 120.1499 240.0034 15.61010366387468
SHIELDS 1               
1 43850U 18104B   25358.97732603  .00150884  64994-5  54542-3 0  9990
2 43850  85.0053 254.7612 0007752  82.7287 277.4872 15.88475539392595
M2 PATHFINDER           
1 45727U 20037E   25360.09068539  .00002280  00000+0  17133-3 0  9992
2 45727  97.8115 184.4524 0012536  23.6798 336.5001 15.03569683299473
NETSAT-4                
1 46504U 20068U   25359.97864687  .00017168  00000+0  47313-3 0  9997
2 46504  97.8610 350.1795 0005098 201.5623 158.5407 15.37195692289101
NETSAT-3                
1 46505U 20068V   25359.96806604  .00017442  00000+0  50303-3 0  9990
2 46505  97.8634 348.6609 0004361 220.9538 139.1378 15.35773523289033
NETSAT-1                
1 46506U 20068W   25359.94830672  .00013813  00000+0  48615-3 0  9992
2 46506  97.8685 344.8105 0003790 248.0898 111.9938 15.29451971288777
NETSAT-2                
1 46507U 20068X   25359.51813464  .00020472  00000+0  55389-3 0  9991
2 46507  97.8617 349.1745 0002519 239.1937 120.9058 15.37736927288975
WILDTRACKCUBE-SIMBA     
1 47941U 21022K   25360.18558079  .00116288  00000+0  97352-3 0  9995
2 47941  97.4047 271.6033 0003031 349.3570  10.7627 15.69618039264191
GREENCUBE (IO-117)      
1 53109U 22080E   25359.02712354 -.00000003  00000+0  00000+0 0  9990
2 53109  70.1577 358.8074 0009115 325.2964  34.7101  6.42583310 80870
SITRO-AIS 5 (KATYS)     
1 57176U 23091L   25360.17069314  .00012647  00000+0  51139-3 0  9999
2 57176  97.5322  57.7575 0012436 359.2273   0.8943 15.24797029137932
SITRO-AIS 6 (CHIRKIN)   
1 57192U 23091AC  25360.16620736  .00007480  00000+0  31905-3 0  9995
2 57192  97.5324  57.5887 0012423   1.7094 358.4182 15.23150472137922
SITRO-AIS 8 (ANOKHIN)   
1 57193U 23091AD  25360.18894775  .00013874  00000+0  52892-3 0  9996
2 57193  97.5316  58.7598 0011634 357.0368   3.0799 15.26749519138006
SITRO-AIS 7 (FARTUSHNIY)
1 57194U 23091AE  25360.20577610  .00006971  00000+0  29944-3 0  9998
2 57194  97.5324  57.5247 0012331   2.6439 357.4861 15.22940529137927
SITRO-AIS 10 (BURDAEV)  
1 57199U 23091AK  25360.19231083  .00018729  00000+0  61983-3 0  9995
2 57199  97.5331  62.3005 0007303 338.4935  21.5998 15.31353518138220
SITRO-AIS 9 (SHCHUKIN)  
1 57201U 23091AM  25360.17423670  .00017768  00000+0  59373-3 0  9994
2 57201  97.5331  62.1205 0007305 339.1406  20.9536 15.31052102138212
SITRO-AIS 12 (SMIRENNIY)
1 57204U 23091AQ  25360.19390353  .00018143  00000+0  60206-3 0  9995
2 57204  97.5340  62.5128 0007074 331.8032  28.2825 15.31274549138235
SITRO-AIS 11 (SHEFFER)  
1 57208U 23091AU  25360.18198061  .00018755  00000+0  61677-3 0  9992
2 57208  97.5338  62.6572 0006977 331.8429  28.2433 15.31558763138240
SITRO-AIS 25            
1 59066U 24039R   25360.22403791  .00008441  00000+0  68221-3 0  9996
2 59066  95.3962 116.3310 0148527 211.6025 147.6218 14.91603383 98926
SITRO-AIS 26            
1 59067U 24039S   25360.20359880  .00008606  00000+0  69829-3 0  9992
2 59067  95.3958 116.2468 0148828 212.0926 147.1174 14.91426013 98912
SITRO-AIS 27            
1 59068U 24039T   25360.21989252  .00008806  00000+0  70886-3 0  9993
2 59068  95.3963 116.4548 0147968 210.9850 148.2585 14.91800786 98930
SITRO-AIS 28            
1 59071U 24039U   25360.20141435  .00008425  00000+0  67776-3 0  9990
2 59071  95.3958 116.4802 0147882 210.9470 148.2980 14.91843378 98937
GRBBETA                 
1 60237U 24128C   25359.64241111  .00005520  00000+0  38990-3 0  9992
2 60237  61.9906 104.4141 0055751  99.0500 261.6907 15.04885645 80131
OOV-CUBE (TUBSAT-30)    
1 60240U 24128F   25359.66507709  .00003326  00000+0  26160-3 0  9994
2 60240  61.9954 110.1912 0058163  96.8516 263.9196 15.01689020 80041
ROBUSTA-3A (MEDITERRAN*)
1 60243U 24128J   25359.85904361  .00009161  00000+0  57798-3 0  9997
2 60243  61.9871  99.8114 0055726  93.2558 267.4913 15.08435445 80243
LASARSAT                
1 62391U 24247Q   25359.49420617  .00027112  00000+0  78585-3 0  9995
2 62391  44.9766 150.1990 0003384 223.8931 136.1686 15.35123525 56521
CROCUBE                 
1 62394U 24247T   25358.72290229  .00028934  00000+0  82011-3 0  9999
2 62394  44.9734 153.6764 0004415 215.4392 144.6201 15.35790069 56418
